HORYU-4                 
1 41340U 16012D   20117.77872803  .00000488  00000-0  30185-4 0  9996
2 41340  31.0056 300.8634 0013937 354.9609   5.0885 15.01473150230101
E-ST@R-II               
1 41459U 16025D   20118.24769284  .00001076  00000-0  58031-4 0  9996
2 41459  98.0979 225.5893 0165563  24.4696 336.4277 15.06313597219732
AAUSAT 4                
1 41460U 16025E   20118.26303958  .00001114  00000-0  58294-4 0  9996
2 41460  98.0947 227.7547 0154730  13.8340 346.7044 15.08567731219921
BEESAT-4                
1 41619U 16040W   20118.40693572  .00001427  00000-0  61937-4 0  9994
2 41619  97.3240 179.1391 0011151   9.0274 351.1162 15.23889857201626
CANX-7                  
1 41788U 16059F   20118.19106419  .00009870  00000-0  13710-2 0  9990
2 41788  98.2513 204.7603 0032665 105.3260 255.1578 14.77718625192248
RAVAN                   
1 41849U 16067B   20117.72689376  .00000912  00000-0  81323-4 0  9998
2 41849  97.9292 226.7167 0010361  64.1348 296.0941 14.98526548188879
CELTEE 1                
1 41850U 16067C   20117.74165087 -.00000321  00000-0 -22490-4 0  9996
2 41850  97.9220 224.6115 0009964  64.0331 296.1916 14.97160129188769
OPTICUBE 04             
1 41851U 16067D   20117.73004576 -.00000208  00000-0 -12813-4 0  9993
2 41851  97.9214 224.2464 0010351  66.4030 293.8277 14.96912894188745
AEROCUBE 8D             
1 41852U 16067E   20118.07971163 -.00000115  00000-0 -46791-5 0  9997
2 41852  97.9213 224.4334 0010710  65.3297 294.9038 14.96882777188771
AEROCUBE 8C             
1 41853U 16067F   20117.77585993  .00000826  00000-0  77304-4 0  9996
2 41853  97.9215 224.0346 0011476  69.1999 291.0451 14.96849513188727
PROMETHEUS 2-1          
1 41854U 16067G   20117.75624524  .00000358  00000-0  36219-4 0  9999
2 41854  97.9217 224.3115 0011266  67.3934 292.8478 14.97150772188735
PROMETHEUS 2-3          
1 41855U 16067H   20118.09120083  .00000370  00000-0  37284-4 0  9996
2 41855  97.9219 224.6809 0011468  66.9612 293.2818 14.97160930188788
INS-1B                  
1 41954U 17008G   20117.82890007  .00001314  00000-0  56018-4 0  9997
2 41954  97.3581 183.1456 0010634 118.7735 241.4572 15.24662396177501
BGUSAT                  
1 41999U 17008BD  20117.71787905  .00002245  00000-0  86612-4 0  9993
2 41999  97.3684 186.8964 0009532 127.0986 233.1126 15.27303621177053
DIDO-2                  
1 42000U 17008BE  20118.11027420  .00000822  00000-0  36387-4 0  9994
2 42000  97.3589 183.9452 0009700 133.6403 226.5641 15.24400257176940
PEASSS                  
1 42015U 17008BV  20117.86313817  .00001134  00000-0  47567-4 0  9998
2 42015  97.3610 185.2000 0007510 135.4401 224.7442 15.25508737177482
AL-FARABI 1             
1 42016U 17008BW  20118.43672731  .00001661  00000-0  66726-4 0  9999
2 42016  97.3636 186.7264 0007456 133.0492 227.1372 15.26322286177744
NAYIF-1 (EO-88)         
1 42017U 17008BX  20117.82677842  .00001550  00000-0  62379-4 0  9997
2 42017  97.3633 186.1362 0007479 134.5343 225.6508 15.26359610177678
NSIGHT                  
1 42726U 98067MF  20116.07643009  .13690248  12613-4  18337-3 0  9995
2 42726  51.6113 128.9553 0003404 226.2479 133.8270 16.49117643167130
UCLSAT                  
1 42765U 17036A   20118.12256482  .00001173  00000-0  52129-4 0  9998
2 42765  97.3059 173.7309 0010714 198.5509 161.5340 15.23417636158179
LITUANICASAT-2          
1 42768U 17036D   20117.85417535  .00002003  00000-0  85698-4 0  9998
2 42768  97.3113 173.3651 0014427 191.0173 169.0751 15.23883608157982
AALTO-1                 
1 42775U 17036L   20117.83612481  .00000722  00000-0  34772-4 0  9994
2 42775  97.3038 171.4136 0013396 193.9766 166.1101 15.21768704157823
URSA MAIOR              
1 42776U 17036M   20118.16025358  .00000878  00000-0  41445-4 0  9990
2 42776  97.3049 171.9910 0013262 192.4643 167.6267 15.21944996157885
COMPASS 2               
1 42777U 17036N   20117.87209271  .00001547  00000-0  67120-4 0  9998
2 42777  97.3103 173.8191 0011966 190.7997 169.2986 15.23772260157949
DIAMOND RED             
1 42783U 17036U   20117.83129713  .00000971  00000-0  44493-4 0  9991
2 42783  97.3060 172.7676 0011321 202.0702 158.0048 15.22743648157896
PEGASUS                 
1 42784U 17036V   20118.13746144  .00001084  00000-0  48829-4 0  9992
2 42784  97.3064 173.4552 0011246 199.8677 160.2124 15.23111653157966
DIAMOND GREEN           
1 42785U 17036W   20117.89580822  .00000966  00000-0  44301-4 0  9993
2 42785  97.3062 172.8641 0011222 202.4248 157.6500 15.22743040157975
DIAMOND BLUE            
1 42786U 17036X   20117.82930737  .00000950  00000-0  43614-4 0  9990
2 42786  97.3062 172.7952 0011046 202.7674 157.3074 15.22743726157963
NUDTSAT                 
1 42787U 17036Y   20117.90943344  .00001706  00000-0  72466-4 0  9995
2 42787  97.3122 174.5122 0009526 202.2848 157.7982 15.24367109157846
SUCHAI                  
1 42788U 17036Z   20117.85153504  .00001313  00000-0  57628-4 0  9998
2 42788  97.3072 173.7183 0010824 198.9094 161.1743 15.23640483158029
SKCUBE                  
1 42789U 17036AA  20117.82672078  .00001227  00000-0  54280-4 0  9993
2 42789  97.3066 173.5621 0010700 199.1584 160.9252 15.23491001157939
VZLUSAT-1               
1 42790U 17036AB  20117.70111093  .00001675  00000-0  71216-4 0  9992
2 42790  97.3091 174.3045 0010276 196.9920 163.0975 15.24357207157964
ROBUSTA-1B              
1 42792U 17036AD  20117.78684436  .00001205  00000-0  53081-4 0  9997
2 42792  97.3069 173.7585 0010257 199.4061 160.6787 15.23676995157956
CICERO 6                
1 42793U 17036AE  20117.68661314  .00000864  00000-0  39555-4 0  9997
2 42793  97.3047 173.1335 0009484 201.9873 158.0959 15.23059957157988
D-SAT                   
1 42794U 17036AF  20117.64200970  .00000356  00000-0  36101-4 0  9991
2 42794  97.4991 152.8501 0126366 177.2270 182.9679 14.91254598154975
CORVUS BC2              
1 42846U 17042X   20117.80356259  .00000024  00000-0  75386-5 0  9997
2 42846  97.5299   3.6704 0011233  90.3006 269.9500 14.92088569151702
CORVUS BC1              
1 42847U 17042Y   20118.33921274  .00000044  00000-0  95191-5 0  9990
2 42847  97.5300   4.3426 0010891  88.1603 272.0864 14.92189770151784
MIRATA                  
1 43015U 17073C   20118.00753720  .00000569  00000-0  49828-4 0  9992
2 43015  97.7209  32.1785 0252488 216.1597 142.2316 14.79570548131616
MAKERSAT 0              
1 43016U 17073D   20117.75120470  .00000411  00000-0  37685-4 0  9998
2 43016  97.7246  32.1212 0255208 217.9299 140.3698 14.79159402131551
ASTERIA                 
1 43020U 98067NH  20115.24608386  .13500826  12580-4  23780-3 0  9993
2 43020  51.6421 146.4962 0005584 252.9464 107.0954 16.47464318139010
DELLINGR (RBLE)         
1 43021U 98067NJ  20117.87970523  .00011879  00000-0  10352-3 0  9992
2 43021  51.6348 183.1641 0000739 260.0917  99.9997 15.69494285138767
AEROCUBE 7B (OCSD B)    
1 43042U 17071F   20117.95718288  .00004226  00000-0  10266-3 0  9990
2 43042  51.6380 319.1916 0004233 209.8002 150.2743 15.43271415134420
AEROCUBE 7C (OCSD C)    
1 43043U 17071G   20117.76543645  .00004041  00000-0  98652-4 0  9994
2 43043  51.6379 320.1759 0004428 213.9430 146.1274 15.43243723134360
CHEFSAT                 
1 43044U 17071H   20118.10245405  .00008253  00000-0  16497-3 0  9992
2 43044  51.6381 305.4257 0004197 220.9185 139.1488 15.47702892134596
ASGARDIA 1              
1 43049U 17071N   20117.82531422  .00003912  00000-0  95598-4 0  9999
2 43049  51.6389 319.1428 0001950 224.3017 135.7813 15.43306985134387
ISARA                   
1 43050U 17071P   20117.85900217  .00007237  00000-0  15032-3 0  9994
2 43050  51.6364 308.9429 0001969 223.2161 136.8673 15.46789531134524
PROPCUBE 2 (FAUNA)      
1 43052U 17071R   20117.82626703  .00004095  00000-0  98257-4 0  9998
2 43052  51.6383 317.6673 0001955 219.4497 140.6347 15.43732960134396
CORVUS BC3              
1 43118U 18004H   20118.25621644  .00000821  00000-0  37594-4 0  9995
2 43118  97.4468 188.9397 0009112 225.6329 134.4162 15.23292543127203
MICROMAS-2A             
1 43131U 18004W   20117.68726242  .00001873  00000-0  77678-4 0  9991
2 43131  97.4513 189.9269 0007991 225.4937 134.5648 15.25118675127209
SPACEBEE-4              
1 43139U 18004AE  20117.89474108  .00002645  00000-0  10467-3 0  9993
2 43139  97.4539 191.1933 0007388 224.0526 136.0124 15.26334137127285
SPACEBEE-3              
1 43140U 18004AF  20118.45819926  .00003732  00000-0  14284-3 0  9998
2 43140  97.4553 192.3629 0007223 219.2197 140.8519 15.27178324127417
SPACEBEE-2              
1 43141U 18004AG  20117.79255006  .00003514  00000-0  13351-3 0  9990
2 43141  97.4567 191.9243 0007163 221.0672 139.0029 15.27458411127326
SPACEBEE-1              
1 43142U 18004AH  20117.77193861  .00003650  00000-0  13723-3 0  9993
2 43142  97.4570 192.1343 0007158 220.6144 139.4562 15.27787978127327
CICERO 7                
1 43143U 18004AJ  20117.69005895  .00001712  00000-0  71128-4 0  9995
2 43143  97.4493 190.1220 0005992 234.6689 125.3989 15.25178311127226
GOMX-4B                 
1 43196U 18015E   20117.81701043  .00000462  00000-0  21852-4 0  9997
2 43196  97.4293 246.7743 0017343 288.0273  71.9073 15.24214115124033
GOMX-4A                 
1 43197U 18015F   20118.56903100  .00000743  00000-0  33145-4 0  9999
2 43197  97.4284 247.5914 0017431 285.6300 134.7455 15.24433818124164
1KUNS-PF                
1 43466U 98067NP  20118.34282351  .00162834  21177-4  46274-3 0  9995
2 43466  51.6256 161.8748 0006678  11.3032 348.8123 15.92979243112343
UBAKUSAT                
1 43467U 98067NQ  20117.80662934  .00024774  00000-0  18145-3 0  9999
2 43467  51.6320 187.0737 0000805 348.5441  11.5539 15.73025980111971
CUBERRT                 
1 43546U 98067NU  20117.65905959  .00011125  00000-0  88940-4 0  9994
2 43546  51.6341 186.8615 0002754 270.9741  89.0941 15.71673589102092
